SKYSAT-C13              
1 43802U 18099AW  26068.66503718  .00089861  00000+0  55860-3 0  9990
2 43802  96.9402 116.3001 0003986 199.1701 160.9417 15.76710150407164
STARLINK-36569          
1 67553U 26014X   26068.67682105  .00149056  00000+0  98239-3 0  9994
2 67553  97.2846 313.6420 0001529  21.0188 339.1140 15.75200917  8567
