[{"OBJECT_NAME":"SKYSAT-C13","OBJECT_ID":"2018-099AW","EPOCH":"2026-03-09T15:57:39.212352","MEAN_MOTION":15.7671015,"ECCENTRICITY":0.00039856,"INCLINATION":96.9402,"RA_OF_ASC_NODE":116.3001,"ARG_OF_PERICENTER":199.1701,"MEAN_ANOMALY":160.9417,"EPHEMERIS_TYPE":0,"CLASSIFICATION_TYPE":"U","NORAD_CAT_ID":43802,"ELEMENT_SET_NO":999,"REV_AT_EPOCH":40716,"BSTAR":0.00055859913,"MEAN_MOTION_DOT":0.00089861,"MEAN_MOTION_DDOT":0},{"OBJECT_NAME":"STARLINK-36569","OBJECT_ID":"2026-014X","EPOCH":"2026-03-09T16:14:37.338720","MEAN_MOTION":15.75200917,"ECCENTRICITY":0.00015293,"INCLINATION":97.2846,"RA_OF_ASC_NODE":313.642,"ARG_OF_PERICENTER":21.0188,"MEAN_ANOMALY":339.114,"EPHEMERIS_TYPE":0,"CLASSIFICATION_TYPE":"U","NORAD_CAT_ID":67553,"ELEMENT_SET_NO":999,"REV_AT_EPOCH":856,"BSTAR":0.00098238862,"MEAN_MOTION_DOT":0.00149056,"MEAN_MOTION_DDOT":0}]
